TEVEL2-6                
1 63215U 25052F   26068.64958975  .00021046  00000+0  70909-3 0  9996
2 63215  97.4016 325.0381 0004769  95.6604 264.5181 15.30760889 54861
STARLINK-34838          
1 65343U 25189W   26068.70122398  .00020043  00000+0  68697-3 0  9997
2 65343  53.1606 207.0316 0001031  73.3677 286.7437 15.30201971 31113
